ORBCOMM FM05            
1 25117U 97084F   24164.22008722  .00002637  00000+0  82373-3 0  9997
2 25117  45.0167 340.4100 0003415 176.0987 183.9891 14.42922562388054
ORBCOMM FM06            
1 25118U 97084G   24164.21027807  .00003122  00000+0  96591-3 0  9999
2 25118  45.0160 340.6085 0002767 188.0507 341.1933 14.42985763388059
ORBCOMM FM07            
1 25119U 97084H   24163.47854766  .00003174  00000+0  98323-3 0  9991
2 25119  45.0156 344.6609 0003896 161.2347 198.8648 14.42890201387916
ORBCOMM FM03            
1 25158U 98007B   24164.06686130  .00001620  00000+0  63987-3 0  9996
2 25158 107.9707  96.3875 0046458 176.7261 183.4190 14.32309423371142
ORBCOMM FM04            
1 25159U 98007C   24164.04946234  .00001866  00000+0  72765-3 0  9995
2 25159 107.9682  99.3105 0041962 174.6362 185.5234 14.32578428371288
ORBCOMM FM17            
1 25413U 98046A   24164.39291294  .00001098  00000+0  44615-3 0  9998
2 25413  44.9934 200.4884 0002465 218.8419 141.2251 14.33280052350255
ORBCOMM FM18            
1 25414U 98046B   24164.18440929  .00002236  00000+0  80924-3 0  9995
2 25414  44.9925 127.8618 0004176 243.6315 116.4104 14.36081484351180
ORBCOMM FM19            
1 25415U 98046C   24164.17713497  .00002239  00000+0  81311-3 0  9992
2 25415  44.9933 129.3517 0002922 245.9029 232.3791 14.35915902351178
