<?xml version="1.0" encoding="UTF-8"?>
<ndm xmlns:xsi="http://www.w3.org/2001/XMLSchema-instance" xsi:noNamespaceSchemaLocation="https://sanaregistry.org/r/ndmxml_unqualified/ndmxml-2.0.0-master-2.0.xsd">
<omm id="CCSDS_OMM_VERS" version="2.0">
<header><CREATION_DATE/><ORIGINATOR/></header><body><segment><metadata><OBJECT_NAME>ORBCOMM FM05</OBJECT_NAME><OBJECT_ID>1997-084F</OBJECT_ID><CENTER_NAME>EARTH</CENTER_NAME><REF_FRAME>TEME</REF_FRAME><TIME_SYSTEM>UTC</TIME_SYSTEM><MEAN_ELEMENT_THEORY>SGP4</MEAN_ELEMENT_THEORY></metadata><data><meanElements><EPOCH>2024-06-12T05:16:55.535808</EPOCH><MEAN_MOTION>14.42922562</MEAN_MOTION><ECCENTRICITY>.0003415</ECCENTRICITY><INCLINATION>45.0167</INCLINATION><RA_OF_ASC_NODE>340.4100</RA_OF_ASC_NODE><ARG_OF_PERICENTER>176.0987</ARG_OF_PERICENTER><MEAN_ANOMALY>183.9891</MEAN_ANOMALY></meanElements><tleParameters><EPHEMERIS_TYPE>0</EPHEMERIS_TYPE><CLASSIFICATION_TYPE>U</CLASSIFICATION_TYPE><NORAD_CAT_ID>25117</NORAD_CAT_ID><ELEMENT_SET_NO>999</ELEMENT_SET_NO><REV_AT_EPOCH>38805</REV_AT_EPOCH><BSTAR>.82373E-3</BSTAR><MEAN_MOTION_DOT>.2637E-4</MEAN_MOTION_DOT><MEAN_MOTION_DDOT>0</MEAN_MOTION_DDOT></tleParameters></data></segment></body></omm>
<omm id="CCSDS_OMM_VERS" version="2.0">
<header><CREATION_DATE/><ORIGINATOR/></header><body><segment><metadata><OBJECT_NAME>ORBCOMM FM06</OBJECT_NAME><OBJECT_ID>1997-084G</OBJECT_ID><CENTER_NAME>EARTH</CENTER_NAME><REF_FRAME>TEME</REF_FRAME><TIME_SYSTEM>UTC</TIME_SYSTEM><MEAN_ELEMENT_THEORY>SGP4</MEAN_ELEMENT_THEORY></metadata><data><meanElements><EPOCH>2024-06-12T05:02:48.025248</EPOCH><MEAN_MOTION>14.42985763</MEAN_MOTION><ECCENTRICITY>.0002767</ECCENTRICITY><INCLINATION>45.0160</INCLINATION><RA_OF_ASC_NODE>340.6085</RA_OF_ASC_NODE><ARG_OF_PERICENTER>188.0507</ARG_OF_PERICENTER><MEAN_ANOMALY>341.1933</MEAN_ANOMALY></meanElements><tleParameters><EPHEMERIS_TYPE>0</EPHEMERIS_TYPE><CLASSIFICATION_TYPE>U</CLASSIFICATION_TYPE><NORAD_CAT_ID>25118</NORAD_CAT_ID><ELEMENT_SET_NO>999</ELEMENT_SET_NO><REV_AT_EPOCH>38805</REV_AT_EPOCH><BSTAR>.96591E-3</BSTAR><MEAN_MOTION_DOT>.3122E-4</MEAN_MOTION_DOT><MEAN_MOTION_DDOT>0</MEAN_MOTION_DDOT></tleParameters></data></segment></body></omm>
<omm id="CCSDS_OMM_VERS" version="2.0">
<header><CREATION_DATE/><ORIGINATOR/></header><body><segment><metadata><OBJECT_NAME>ORBCOMM FM07</OBJECT_NAME><OBJECT_ID>1997-084H</OBJECT_ID><CENTER_NAME>EARTH</CENTER_NAME><REF_FRAME>TEME</REF_FRAME><TIME_SYSTEM>UTC</TIME_SYSTEM><MEAN_ELEMENT_THEORY>SGP4</MEAN_ELEMENT_THEORY></metadata><data><meanElements><EPOCH>2024-06-11T11:29:06.517824</EPOCH><MEAN_MOTION>14.42890201</MEAN_MOTION><ECCENTRICITY>.0003896</ECCENTRICITY><INCLINATION>45.0156</INCLINATION><RA_OF_ASC_NODE>344.6609</RA_OF_ASC_NODE><ARG_OF_PERICENTER>161.2347</ARG_OF_PERICENTER><MEAN_ANOMALY>198.8648</MEAN_ANOMALY></meanElements><tleParameters><EPHEMERIS_TYPE>0</EPHEMERIS_TYPE><CLASSIFICATION_TYPE>U</CLASSIFICATION_TYPE><NORAD_CAT_ID>25119</NORAD_CAT_ID><ELEMENT_SET_NO>999</ELEMENT_SET_NO><REV_AT_EPOCH>38791</REV_AT_EPOCH><BSTAR>.98323E-3</BSTAR><MEAN_MOTION_DOT>.3174E-4</MEAN_MOTION_DOT><MEAN_MOTION_DDOT>0</MEAN_MOTION_DDOT></tleParameters></data></segment></body></omm>
<omm id="CCSDS_OMM_VERS" version="2.0">
<header><CREATION_DATE/><ORIGINATOR/></header><body><segment><metadata><OBJECT_NAME>ORBCOMM FM03</OBJECT_NAME><OBJECT_ID>1998-007B</OBJECT_ID><CENTER_NAME>EARTH</CENTER_NAME><REF_FRAME>TEME</REF_FRAME><TIME_SYSTEM>UTC</TIME_SYSTEM><MEAN_ELEMENT_THEORY>SGP4</MEAN_ELEMENT_THEORY></metadata><data><meanElements><EPOCH>2024-06-12T01:36:16.816320</EPOCH><MEAN_MOTION>14.32309423</MEAN_MOTION><ECCENTRICITY>.0046458</ECCENTRICITY><INCLINATION>107.9707</INCLINATION><RA_OF_ASC_NODE>96.3875</RA_OF_ASC_NODE><ARG_OF_PERICENTER>176.7261</ARG_OF_PERICENTER><MEAN_ANOMALY>183.4190</MEAN_ANOMALY></meanElements><tleParameters><EPHEMERIS_TYPE>0</EPHEMERIS_TYPE><CLASSIFICATION_TYPE>U</CLASSIFICATION_TYPE><NORAD_CAT_ID>25158</NORAD_CAT_ID><ELEMENT_SET_NO>999</ELEMENT_SET_NO><REV_AT_EPOCH>37114</REV_AT_EPOCH><BSTAR>.63987E-3</BSTAR><MEAN_MOTION_DOT>.162E-4</MEAN_MOTION_DOT><MEAN_MOTION_DDOT>0</MEAN_MOTION_DDOT></tleParameters></data></segment></body></omm>
<omm id="CCSDS_OMM_VERS" version="2.0">
<header><CREATION_DATE/><ORIGINATOR/></header><body><segment><metadata><OBJECT_NAME>ORBCOMM FM04</OBJECT_NAME><OBJECT_ID>1998-007C</OBJECT_ID><CENTER_NAME>EARTH</CENTER_NAME><REF_FRAME>TEME</REF_FRAME><TIME_SYSTEM>UTC</TIME_SYSTEM><MEAN_ELEMENT_THEORY>SGP4</MEAN_ELEMENT_THEORY></metadata><data><meanElements><EPOCH>2024-06-12T01:11:13.546176</EPOCH><MEAN_MOTION>14.32578428</MEAN_MOTION><ECCENTRICITY>.0041962</ECCENTRICITY><INCLINATION>107.9682</INCLINATION><RA_OF_ASC_NODE>99.3105</RA_OF_ASC_NODE><ARG_OF_PERICENTER>174.6362</ARG_OF_PERICENTER><MEAN_ANOMALY>185.5234</MEAN_ANOMALY></meanElements><tleParameters><EPHEMERIS_TYPE>0</EPHEMERIS_TYPE><CLASSIFICATION_TYPE>U</CLASSIFICATION_TYPE><NORAD_CAT_ID>25159</NORAD_CAT_ID><ELEMENT_SET_NO>999</ELEMENT_SET_NO><REV_AT_EPOCH>37128</REV_AT_EPOCH><BSTAR>.72765E-3</BSTAR><MEAN_MOTION_DOT>.1866E-4</MEAN_MOTION_DOT><MEAN_MOTION_DDOT>0</MEAN_MOTION_DDOT></tleParameters></data></segment></body></omm>
<omm id="CCSDS_OMM_VERS" version="2.0">
<header><CREATION_DATE/><ORIGINATOR/></header><body><segment><metadata><OBJECT_NAME>ORBCOMM FM17</OBJECT_NAME><OBJECT_ID>1998-046A</OBJECT_ID><CENTER_NAME>EARTH</CENTER_NAME><REF_FRAME>TEME</REF_FRAME><TIME_SYSTEM>UTC</TIME_SYSTEM><MEAN_ELEMENT_THEORY>SGP4</MEAN_ELEMENT_THEORY></metadata><data><meanElements><EPOCH>2024-06-12T09:25:47.678016</EPOCH><MEAN_MOTION>14.33280052</MEAN_MOTION><ECCENTRICITY>.0002465</ECCENTRICITY><INCLINATION>44.9934</INCLINATION><RA_OF_ASC_NODE>200.4884</RA_OF_ASC_NODE><ARG_OF_PERICENTER>218.8419</ARG_OF_PERICENTER><MEAN_ANOMALY>141.2251</MEAN_ANOMALY></meanElements><tleParameters><EPHEMERIS_TYPE>0</EPHEMERIS_TYPE><CLASSIFICATION_TYPE>U</CLASSIFICATION_TYPE><NORAD_CAT_ID>25413</NORAD_CAT_ID><ELEMENT_SET_NO>999</ELEMENT_SET_NO><REV_AT_EPOCH>35025</REV_AT_EPOCH><BSTAR>.44615E-3</BSTAR><MEAN_MOTION_DOT>.1098E-4</MEAN_MOTION_DOT><MEAN_MOTION_DDOT>0</MEAN_MOTION_DDOT></tleParameters></data></segment></body></omm>
<omm id="CCSDS_OMM_VERS" version="2.0">
<header><CREATION_DATE/><ORIGINATOR/></header><body><segment><metadata><OBJECT_NAME>ORBCOMM FM18</OBJECT_NAME><OBJECT_ID>1998-046B</OBJECT_ID><CENTER_NAME>EARTH</CENTER_NAME><REF_FRAME>TEME</REF_FRAME><TIME_SYSTEM>UTC</TIME_SYSTEM><MEAN_ELEMENT_THEORY>SGP4</MEAN_ELEMENT_THEORY></metadata><data><meanElements><EPOCH>2024-06-12T04:25:32.962656</EPOCH><MEAN_MOTION>14.36081484</MEAN_MOTION><ECCENTRICITY>.0004176</ECCENTRICITY><INCLINATION>44.9925</INCLINATION><RA_OF_ASC_NODE>127.8618</RA_OF_ASC_NODE><ARG_OF_PERICENTER>243.6315</ARG_OF_PERICENTER><MEAN_ANOMALY>116.4104</MEAN_ANOMALY></meanElements><tleParameters><EPHEMERIS_TYPE>0</EPHEMERIS_TYPE><CLASSIFICATION_TYPE>U</CLASSIFICATION_TYPE><NORAD_CAT_ID>25414</NORAD_CAT_ID><ELEMENT_SET_NO>999</ELEMENT_SET_NO><REV_AT_EPOCH>35118</REV_AT_EPOCH><BSTAR>.80924E-3</BSTAR><MEAN_MOTION_DOT>.2236E-4</MEAN_MOTION_DOT><MEAN_MOTION_DDOT>0</MEAN_MOTION_DDOT></tleParameters></data></segment></body></omm>
<omm id="CCSDS_OMM_VERS" version="2.0">
<header><CREATION_DATE/><ORIGINATOR/></header><body><segment><metadata><OBJECT_NAME>ORBCOMM FM19</OBJECT_NAME><OBJECT_ID>1998-046C</OBJECT_ID><CENTER_NAME>EARTH</CENTER_NAME><REF_FRAME>TEME</REF_FRAME><TIME_SYSTEM>UTC</TIME_SYSTEM><MEAN_ELEMENT_THEORY>SGP4</MEAN_ELEMENT_THEORY></metadata><data><meanElements><EPOCH>2024-06-12T04:15:04.461408</EPOCH><MEAN_MOTION>14.35915902</MEAN_MOTION><ECCENTRICITY>.0002922</ECCENTRICITY><INCLINATION>44.9933</INCLINATION><RA_OF_ASC_NODE>129.3517</RA_OF_ASC_NODE><ARG_OF_PERICENTER>245.9029</ARG_OF_PERICENTER><MEAN_ANOMALY>232.3791</MEAN_ANOMALY></meanElements><tleParameters><EPHEMERIS_TYPE>0</EPHEMERIS_TYPE><CLASSIFICATION_TYPE>U</CLASSIFICATION_TYPE><NORAD_CAT_ID>25415</NORAD_CAT_ID><ELEMENT_SET_NO>999</ELEMENT_SET_NO><REV_AT_EPOCH>35117</REV_AT_EPOCH><BSTAR>.81311E-3</BSTAR><MEAN_MOTION_DOT>.2239E-4</MEAN_MOTION_DOT><MEAN_MOTION_DDOT>0</MEAN_MOTION_DDOT></tleParameters></data></segment></body></omm>

</ndm>
